[{"OBJECT_NAME":"LUSAT (LO-19)","OBJECT_ID":"1990-005G","EPOCH":"2026-03-09T14:54:14.260896","MEAN_MOTION":14.34087969,"ECCENTRICITY":0.001234,"INCLINATION":98.8938,"RA_OF_ASC_NODE":87.6461,"ARG_OF_PERICENTER":134.6824,"MEAN_ANOMALY":225.5367,"EPHEMERIS_TYPE":0,"CLASSIFICATION_TYPE":"U","NORAD_CAT_ID":20442,"ELEMENT_SET_NO":999,"REV_AT_EPOCH":88812,"BSTAR":8.4338e-5,"MEAN_MOTION_DOT":1.89e-6,"MEAN_MOTION_DDOT":0},{"OBJECT_NAME":"COSMOS 1420","OBJECT_ID":"1982-109A","EPOCH":"2026-03-09T23:18:49.997664","MEAN_MOTION":14.3476701,"ECCENTRICITY":0.00190603,"INCLINATION":73.9966,"RA_OF_ASC_NODE":4.3718,"ARG_OF_PERICENTER":140.3804,"MEAN_ANOMALY":219.8745,"EPHEMERIS_TYPE":0,"CLASSIFICATION_TYPE":"U","NORAD_CAT_ID":13648,"ELEMENT_SET_NO":999,"REV_AT_EPOCH":26535,"BSTAR":8.0413182e-5,"MEAN_MOTION_DOT":2.02e-6,"MEAN_MOTION_DDOT":0}]
